NORAD_CAT_ID,OBJECT_NAME,OBJECT_TYPE,EPOCH,MEAN_MOTION,ECCENTRICITY,INCLINATION,RA_OF_ASC_NODE,ARG_OF_PERICENTER,MEAN_ANOMALY,BSTAR,MEAN_MOTION_DOT,MEAN_MOTION_DDOT,TLE_LINE0,TLE_LINE1,TLE_LINE2,SEMIMAJOR_AXIS,PERIOD,APOGEE,PERIGEE,DECAYED
52556.0,STARLINK-3763,PAYLOAD,2023-06-03 19:07:44,15.19276453,0.0003509,53.2183,340.6723,116.2795,243.8563,0.0010529,0.00022234,0.0,0 STARLINK-3763,1 52556U 22051Z   23154.79704808  .00022234  00000-0  10529-2 0  9993,2 52556  53.2183 340.6723 0003509 116.2795 243.8563 15.19276453 59019,6886.163,94.782,510.444,505.612,0.0
52556.0,STARLINK-3763,PAYLOAD,2023-06-03 22:17:12,15.19281258,0.000346,53.2183,340.0725,116.3226,243.8127,0.0010592,0.00022372,0.0,0 STARLINK-3763,1 52556U 22051Z   23154.92861724  .00022372  00000-0  10592-2 0  9992,2 52556  53.2183 340.0725 0003460 116.3226 243.8127 15.19281258 59106,6886.149,94.782,510.396,505.631,0.0
52556.0,STARLINK-3763,PAYLOAD,2023-06-04 12:29:45,15.19306785,0.0003415,53.2185,337.3715,118.0335,242.1008,0.00099367,0.0002098,0.0,0 STARLINK-3763,1 52556U 22051Z   23155.52067099  .00020980  00000-0  99367-3 0  9993,2 52556  53.2185 337.3715 0003415 118.0335 242.1008 15.19306785 59121,6886.071,94.78,510.288,505.585,0.0
52556.0,STARLINK-3763,PAYLOAD,2023-06-04 18:48:40,15.19319652,0.0003365,53.2186,336.1713,117.8888,242.2449,0.0010966,0.00023202,0.0,0 STARLINK-3763,1 52556U 22051Z   23155.78380274  .00023202  00000-0  10966-2 0  9991,2 52556  53.2186 336.1713 0003365 117.8888 242.2449 15.19319652 59162,6886.033,94.779,510.215,505.58,0.0
52556.0,STARLINK-3763,PAYLOAD,2023-06-05 12:10:39,15.19353968,0.0003274,53.219,332.8698,119.8545,240.2777,0.0010138,0.00021442,0.0,0 STARLINK-3763,1 52556U 22051Z   23156.50740340  .00021442  00000-0  10138-2 0  9991,2 52556  53.2190 332.8698 0003274 119.8545 240.2777 15.19353968 59275,6885.929,94.777,510.048,505.539,0.0
52556.0,STARLINK-3763,PAYLOAD,2023-06-05 16:54:50,15.19363924,0.000324,53.2191,331.9699,119.6668,240.4652,0.0010705,0.0002267,0.0,0 STARLINK-3763,1 52556U 22051Z   23156.70474614  .00022670  00000-0  10705-2 0  9995,2 52556  53.2191 331.9699 0003240 119.6668 240.4652 15.19363924 59372,6885.899,94.777,509.995,505.533,0.0
52556.0,STARLINK-3763,PAYLOAD,2023-06-05 20:04:16,15.19372098,0.0003208,53.2192,331.3697,119.5792,240.5525,0.0011493,0.00024374,0.0,0 STARLINK-3763,1 52556U 22051Z   23156.83630706  .00024374  00000-0  11493-2 0  9993,2 52556  53.2192 331.3697 0003208 119.5792 240.5525 15.19372098 59323,6885.874,94.776,509.948,505.53,0.0
52556.0,STARLINK-3763,PAYLOAD,2023-06-06 13:26:13,15.1940942,0.0003136,53.2194,328.068,121.6901,238.4402,0.0011151,0.00023662,0.0,0 STARLINK-3763,1 52556U 22051Z   23157.55988213  .00023662  00000-0  11151-2 0  9992,2 52556  53.2194 328.0680 0003136 121.6901 238.4402 15.19409420 59438,6885.761,94.774,509.786,505.467,0.0
52556.0,STARLINK-3763,PAYLOAD,2023-06-06 15:00:57,15.19411006,0.0003085,53.2195,327.768,121.7675,238.3623,0.0010767,0.00022835,0.0,0 STARLINK-3763,1 52556U 22051Z   23157.62566109  .00022835  00000-0  10767-2 0  9999,2 52556  53.2195 327.7680 0003085 121.7675 238.3623 15.19411006 59445,6885.757,94.774,509.746,505.497,0.0
52556.0,STARLINK-3763,PAYLOAD,2023-06-06 21:19:50,15.19428175,0.0003048,53.2195,326.5678,121.4696,238.6599,0.0012315,0.00026189,0.0,0 STARLINK-3763,1 52556U 22051Z   23157.88877388  .00026189  00000-0  12315-2 0  9998,2 52556  53.2195 326.5678 0003048 121.4696 238.6599 15.19428175 59550,6885.705,94.772,509.668,505.471,0.0
52556.0,STARLINK-3763,PAYLOAD,2023-06-07 13:07:01,15.19460431,0.0002968,53.2196,323.5663,124.376,235.7518,0.0011213,0.00023831,0.0,0 STARLINK-3763,1 52556U 22051Z   23158.54654653  .00023831  00000-0  11213-2 0  9997,2 52556  53.2196 323.5663 0002968 124.3760 235.7518 15.19460431 59589,6885.607,94.77,509.516,505.429,0.0
52556.0,STARLINK-3763,PAYLOAD,2023-06-07 21:00:36,15.19479182,0.0002889,53.2197,322.0661,124.1381,235.989,0.0012502,0.00026633,0.0,0 STARLINK-3763,1 52556U 22051Z   23158.87542719  .00026633  00000-0  12502-2 0  9997,2 52556  53.2197 322.0661 0002889 124.1381 235.9890 15.19479182 59635,6885.551,94.769,509.405,505.426,0.0
52556.0,STARLINK-3763,PAYLOAD,2023-06-08 11:13:03,15.19511235,0.00029,53.2201,319.3653,126.4618,233.6647,0.0012612,0.00026896,0.0,0 STARLINK-3763,1 52556U 22051Z   23159.46740312  .00026896  00000-0  12612-2 0  9995,2 52556  53.2201 319.3653 0002900 126.4618 233.6647 15.19511235 59791,6885.454,94.767,509.316,505.322,0.0
52556.0,STARLINK-3763,PAYLOAD,2023-06-08 17:31:55,15.19525619,0.0002785,53.2197,318.1647,126.59,233.5354,0.0013355,0.00028518,0.0,0 STARLINK-3763,1 52556U 22051Z   23159.73049951  .00028518  00000-0  13355-2 0  9994,2 52556  53.2197 318.1647 0002785 126.5900 233.5354 15.19525619 59763,6885.41,94.766,509.193,505.358,0.0
52556.0,STARLINK-3763,PAYLOAD,2023-06-09 17:12:36,15.19578166,0.000268,53.22,313.6629,129.5619,230.5615,0.0012128,0.00025898,0.0,0 STARLINK-3763,1 52556U 22051Z   23160.71708834  .00025898  00000-0  12128-2 0  9991,2 52556  53.2200 313.6629 0002680 129.5619 230.5615 15.19578166 59988,6885.252,94.763,508.962,505.271,0.0
52556.0,STARLINK-3763,PAYLOAD,2023-06-10 12:09:07,15.19617962,0.0002663,53.2199,310.0611,131.9753,228.1471,0.0011193,0.00023898,0.0,0 STARLINK-3763,1 52556U 22051Z   23161.50633543  .00023898  00000-0  11193-2 0  9992,2 52556  53.2199 310.0611 0002663 131.9753 228.1471 15.19617962 60033,6885.131,94.761,508.83,505.163,0.0
52556.0,STARLINK-3763,PAYLOAD,2023-06-10 20:02:40,15.19621486,0.0002495,53.2203,308.5608,133.0727,227.0479,0.00093615,0.00019926,0.0,0 STARLINK-3763,1 52556U 22051Z   23161.83518628  .00019926  00000-0  93615-3 0  9991,2 52556  53.2203 308.5608 0002495 133.0727 227.0479 15.19621486 60081,6885.121,94.76,508.704,505.268,0.0
52556.0,STARLINK-3763,PAYLOAD,2023-06-11 02:21:29,15.1963283,0.0002442,53.2196,307.3588,133.4546,226.6655,0.0010196,0.00021744,0.0,0 STARLINK-3763,1 52556U 22051Z   23162.09826334  .00021744  00000-0  10196-2 0  9999,2 52556  53.2196 307.3588 0002442 133.4546 226.6655 15.19632830 60199,6885.086,94.76,508.633,505.27,0.0
52556.0,STARLINK-3763,PAYLOAD,2023-06-11 11:49:46,15.19572765,8.75e-05,53.2195,305.557,147.44,212.6651,-0.00036077,-8.082e-05,0.0,0 STARLINK-3763,1 52556U 22051Z   23162.49290313 -.00008082  00000-0 -36077-3 0  9994,2 52556  53.2195 305.5570 0000875 147.4400 212.6651 15.19572765 60259,6885.268,94.763,507.735,506.53,0.0
52556.0,STARLINK-3763,PAYLOAD,2023-06-11 16:33:54,15.19577179,0.0002162,53.2198,304.6573,134.1279,225.9896,-0.00012502,-3.013e-05,0.0,0 STARLINK-3763,1 52556U 22051Z   23162.69021739 -.00003013  00000-0 -12502-3 0  9996,2 52556  53.2198 304.6573 0002162 134.1279 225.9896 15.19577179 60288,6885.255,94.763,508.608,505.631,0.0
52556.0,STARLINK-3763,PAYLOAD,2023-06-11 18:08:37,15.19575816,0.0001781,53.2196,304.357,139.3859,220.7271,-5.5303e-06,-4.4e-06,0.0,0 STARLINK-3763,1 52556U 22051Z   23162.75599003 -.00000440  00000-0 -55303-5 0  9996,2 52556  53.2196 304.3570 0001781 139.3859 220.7271 15.19575816 60227,6885.259,94.763,508.35,505.897,0.0
52556.0,STARLINK-3763,PAYLOAD,2023-06-12 08:21:03,15.19535633,0.0002201,53.2194,301.6565,132.2879,227.8305,-3.4865e-05,-1.071e-05,0.0,0 STARLINK-3763,1 52556U 22051Z   23163.34795675 -.00001071  00000-0 -34865-4 0  9995,2 52556  53.2194 301.6565 0002201 132.2879 227.8305 15.19535633 60387,6885.38,94.766,508.761,505.73,0.0
52556.0,STARLINK-3763,PAYLOAD,2023-06-12 16:14:38,15.19520193,9.65e-05,53.2168,300.1486,145.752,214.3539,-0.00021521,-4.945e-05,0.0,0 STARLINK-3763,1 52556U 22051Z   23163.67683274 -.00004945  00000-0 -21521-3 0  9999,2 52556  53.2168 300.1486 0000965 145.7520 214.3539 15.19520193 60432,6885.427,94.767,507.956,506.627,0.0
52556.0,STARLINK-3763,PAYLOAD,2023-06-13 01:42:56,15.19495881,0.0001674,53.2191,298.3554,137.2414,222.8714,-0.0004741,-0.00010494,0.0,0 STARLINK-3763,1 52556U 22051Z   23164.07149079 -.00010494  00000-0 -47410-3 0  9995,2 52556  53.2191 298.3554 0001674 137.2414 222.8714 15.19495881 60498,6885.5,94.768,508.518,506.212,0.0
52556.0,STARLINK-3763,PAYLOAD,2023-06-13 11:11:15,15.19466482,0.0001788,53.2182,296.5534,139.9048,220.2081,-0.00058809,-0.00012926,0.0,0 STARLINK-3763,1 52556U 22051Z   23164.46615589 -.00012926  00000-0 -58809-3 0  9998,2 52556  53.2182 296.5534 0001788 139.9048 220.2081 15.19466482 60555,6885.589,94.77,508.685,506.223,0.0
52556.0,STARLINK-3763,PAYLOAD,2023-06-14 10:52:07,15.19416387,5.25e-05,53.22,292.0512,150.3298,209.7728,-0.00035271,-7.874e-05,0.0,0 STARLINK-3763,1 52556U 22051Z   23165.45286675 -.00007874  00000-0 -35271-3 0  9992,2 52556  53.2200 292.0512 0000525 150.3298 209.7728 15.19416387 60701,6885.74,94.773,507.967,507.244,0.0
52556.0,STARLINK-3763,PAYLOAD,2023-06-14 17:11:00,15.19419697,0.0002748,53.221,290.8453,161.2086,198.9013,-0.000395,-8.781e-05,0.0,0 STARLINK-3763,1 52556U 22051Z   23165.71597646 -.00008781  00000-0 -39500-3 0  9991,2 52556  53.2210 290.8453 0002748 161.2086 198.9013 15.19419697 60676,6885.73,94.773,509.487,505.703,0.0
52556.0,STARLINK-3763,PAYLOAD,2023-06-15 01:04:39,15.19381843,0.0001357,53.2176,289.3522,145.9286,214.1798,-0.00039387,-8.746e-05,0.0,0 STARLINK-3763,1 52556U 22051Z   23166.04489989 -.00008746  00000-0 -39387-3 0  9992,2 52556  53.2176 289.3522 0001357 145.9286 214.1798 15.19381843 60798,6885.845,94.775,508.644,506.775,0.0
52556.0,STARLINK-3763,PAYLOAD,2023-06-15 13:42:28,15.19357752,0.0001142,53.2183,286.9479,128.7607,231.3492,-0.00042223,-9.346e-05,0.0,0 STARLINK-3763,1 52556U 22051Z   23166.57116028 -.00009346  00000-0 -42223-3 0  9991,2 52556  53.2183 286.9479 0001142 128.7607 231.3492 15.19357752 60804,6885.917,94.777,508.569,506.996,0.0
52556.0,STARLINK-3763,PAYLOAD,2023-06-15 18:26:40,15.19334428,0.0001077,53.2192,286.0509,109.7238,250.3875,-0.00042073,-9.307e-05,0.0,0 STARLINK-3763,1 52556U 22051Z   23166.76852056 -.00009307  00000-0 -42073-3 0  9990,2 52556  53.2192 286.0509 0001077 109.7238 250.3875 15.19334428 60907,6885.988,94.778,508.595,507.111,0.0
